NORAD_CAT_ID,OBJECT_NAME,OBJECT_TYPE,EPOCH,MEAN_MOTION,ECCENTRICITY,INCLINATION,RA_OF_ASC_NODE,ARG_OF_PERICENTER,MEAN_ANOMALY,BSTAR,MEAN_MOTION_DOT,MEAN_MOTION_DDOT,TLE_LINE0,TLE_LINE1,TLE_LINE2,SEMIMAJOR_AXIS,PERIOD,APOGEE,PERIGEE,DECAYED
50182.0,STARLINK-3277,PAYLOAD,2022-03-13 22:00:01,15.24604586,0.0001969,53.2176,309.3581,32.3769,40.9188,-0.028508,-0.0066077,0.0,0 STARLINK-3277,1 50182U 21125AC  22072.91668981 -.00660770  00000-0 -28508-1 0  9990,2 50182  53.2176 309.3581 0001969  32.3769  40.9188 15.24604586  3651,6870.11,94.451,493.328,490.622,0.0
50182.0,STARLINK-3277,PAYLOAD,2022-03-14 14:00:01,15.23670664,0.0001853,53.2175,306.2974,38.1269,95.1107,-0.029259,-0.00659519,0.0,0 STARLINK-3277,1 50182U 21125AC  22073.58335648 -.00659519  00000-0 -29259-1 0  9998,2 50182  53.2175 306.2974 0001853  38.1269  95.1107 15.23670664 16299,6872.917,94.509,496.056,493.509,0.0
50182.0,STARLINK-3277,PAYLOAD,2022-03-14 20:00:01,15.23321104,0.0002106,53.2177,305.1528,28.9402,36.1325,-0.029586,-0.00659956,0.0,0 STARLINK-3277,1 50182U 21125AC  22073.83334491 -.00659956  00000-0 -29586-1 0  9999,2 50182  53.2177 305.1528 0002106  28.9402  36.1325 15.23321104  3613,6873.968000000003,94.53,497.281,494.386,0.0
50182.0,STARLINK-3277,PAYLOAD,2022-03-15 02:00:01,15.22968891,0.0002042,53.2176,304.0082,29.1183,327.5388,-0.029691,-0.00655693,0.0,0 STARLINK-3277,1 50182U 21125AC  22074.08334491 -.00655693  00000-0 -29691-1 0  9998,2 50182  53.2176 304.0082 0002042  29.1183 327.5388 15.22968891  3630,6875.028,94.552,498.297,495.489,0.0
50182.0,STARLINK-3277,PAYLOAD,2022-03-15 22:00:00,15.21803056,0.0002094,53.2176,300.1945,34.9308,211.3962,-0.030809,-0.00657128,0.0,0 STARLINK-3277,1 50182U 21125AC  22074.91667824 -.00657128  00000-0 -30809-1 0  9997,2 50182  53.2176 300.1945 0002094  34.9308 211.3962 15.21803056 16491,6878.5390000000025,94.625,501.844,498.964,0.0
50182.0,STARLINK-3277,PAYLOAD,2022-03-16 14:00:01,15.20869707,0.000182,53.2176,297.1468,38.4347,261.1062,-0.031626,-0.00656259,0.0,0 STARLINK-3277,1 50182U 21125AC  22075.58334491 -.00656259  00000-0 -31626-1 0  9994,2 50182  53.2176 297.1468 0001820  38.4347 261.1062 15.20869707  3645,6881.353,94.683,504.47,501.966,0.0
50182.0,STARLINK-3277,PAYLOAD,2022-03-16 20:00:01,15.20519307,0.0002085,53.2175,296.0073,34.6503,194.2668,-0.031934,-0.00655916,0.0,0 STARLINK-3277,1 50182U 21125AC  22075.83334491 -.00655916  00000-0 -31934-1 0  9993,2 50182  53.2175 296.0073 0002085  34.6503 194.2668 15.20519307  3635,6882.41,94.704,505.71,502.84,0.0
50182.0,STARLINK-3277,PAYLOAD,2022-03-17 06:00:00,15.19938817,0.0001546,53.2175,294.1065,46.0267,304.4835,-0.032742,-0.00667935,0.0,0 STARLINK-3277,1 50182U 21125AC  22076.25001157 -.00667935  00000-0 -32742-1 0  9992,2 50182  53.2175 294.1065 0001546  46.0267 304.4835 15.19938817 16690,6884.1619999999975,94.741,507.092,504.963,0.0
50182.0,STARLINK-3277,PAYLOAD,2022-03-17 14:00:01,15.19469319,0.0001884,53.2176,292.5865,33.3764,341.7793,-0.032881,-0.00654965,0.0,0 STARLINK-3277,1 50182U 21125AC  22076.58334491 -.00654965  00000-0 -32881-1 0  9991,2 50182  53.2176 292.5865 0001884  33.3764 341.7793 15.19469319  3641,6885.58,94.77,508.74300000000005,506.148,0.0
50182.0,STARLINK-3277,PAYLOAD,2022-03-17 22:00:00,15.19006279,0.0002035,53.2176,291.0704,31.0823,8.1548,-0.033689,-0.00668803,0.0,0 STARLINK-3277,1 50182U 21125AC  22076.91667824 -.00668803  00000-0 -33689-1 0  9990,2 50182  53.2176 291.0704 0002035  31.0823   8.1548 15.19006279  3641,6886.98,94.799,510.246,507.443,0.0
50182.0,STARLINK-3277,PAYLOAD,2022-03-18 08:00:01,15.18422173,0.0001709,53.2175,289.1727,42.9999,115.5543,-0.034127,-0.00666234,0.0,0 STARLINK-3277,1 50182U 21125AC  22077.33334491 -.00666234  00000-0 -34127-1 0  9992,2 50182  53.2175 289.1727 0001709  42.9999 115.5543 15.18422173 16865,6888.746,94.835,511.788,509.4330000000001,0.0
50182.0,STARLINK-3277,PAYLOAD,2022-03-18 14:00:01,15.18070352,0.0001706999999999,53.2176,288.0358,42.8087,42.9156,-0.034305,-0.00663122,0.0,0 STARLINK-3277,1 50182U 21125AC  22077.58334491 -.00663122  00000-0 -34305-1 0  9990,2 50182  53.2176 288.0358 0001707  42.8087  42.9156 15.18070352  3642,6889.81,94.857,512.851,510.499,0.0
50182.0,STARLINK-3277,PAYLOAD,2022-03-18 22:00:00,15.17606012,0.0001835,53.2176,286.523,40.7504,67.3738,-0.03503,-0.00667811,0.0,0 STARLINK-3277,1 50182U 21125AC  22077.91667824 -.00667811  00000-0 -35030-1 0  9991,2 50182  53.2176 286.5230 0001835  40.7504  67.3738 15.17606012  3708,6891.215,94.886,514.345,511.816,0.0
50182.0,STARLINK-3277,PAYLOAD,2022-03-19 14:00:01,15.16671407,0.0002024,53.2176,283.495,36.0654,115.1816,-0.035786,-0.0066436,0.0,0 STARLINK-3277,1 50182U 21125AC  22078.58334491 -.00664360  00000-0 -35786-1 0  9990,2 50182  53.2176 283.4950 0002024  36.0654 115.1816 15.16671407 17059,6894.045999999999,94.945,517.306,514.516,0.0
50182.0,STARLINK-3277,PAYLOAD,2022-03-19 22:00:01,15.16204675,0.0002095,53.2175,281.9854,35.8098,136.2194,-0.036297,-0.00664862,0.0,0 STARLINK-3277,1 50182U 21125AC  22078.91668981 -.00664862  00000-0 -36297-1 0  9996,2 50182  53.2175 281.9854 0002095  35.8098 136.2194 15.16204675  3665,6895.4609999999975,94.974,518.77,515.881,0.0
50182.0,STARLINK-3277,PAYLOAD,2022-03-20 14:00:01,15.15271755,0.0001998,53.2175,278.964,38.7361,172.9883,-0.037245,-0.00664312,0.0,0 STARLINK-3277,1 50182U 21125AC  22079.58334491 -.00664312  00000-0 -37245-1 0  9990,2 50182  53.2175 278.9640 0001998  38.7361 172.9883 15.15271755  3631,6898.291,95.032,521.534,518.7769999999998,0.0
50182.0,STARLINK-3277,PAYLOAD,2022-03-20 22:00:01,15.14803984,0.0001915,53.2174,277.4574,42.6658,188.1592,-0.037657,-0.00662867,0.0,0 STARLINK-3277,1 50182U 21125AC  22079.91668981 -.00662867  00000-0 -37657-1 0  9991,2 50182  53.2174 277.4574 0001915  42.6658 188.1592 15.14803984 17255,6899.7109999999975,95.062,522.8969999999998,520.254,0.0
50182.0,STARLINK-3277,PAYLOAD,2022-03-21 14:00:01,15.13872025,0.0001993,53.2175,274.4426,36.526,230.6301,-0.03875,-0.00664241,0.0,0 STARLINK-3277,1 50182U 21125AC  22080.58334491 -.00664241  00000-0 -38750-1 0  9995,2 50182  53.2175 274.4426 0001993  36.5260 230.6301 15.13872025  3635,6902.542,95.12,525.783,523.031,0.0
50182.0,STARLINK-3277,PAYLOAD,2022-03-21 22:00:00,15.13404083,0.0001998,53.2175,272.9394,35.1097,249.402,-0.039151,-0.00662427,0.0,0 STARLINK-3277,1 50182U 21125AC  22080.91667824 -.00662427  00000-0 -39151-1 0  9991,2 50182  53.2175 272.9394 0001998  35.1097 249.4020 15.13404083  3631,6903.965,95.15,527.2090000000002,524.45,0.0
50182.0,STARLINK-3277,PAYLOAD,2022-03-22 06:00:00,15.12868547,0.0001758,53.2175,271.432,46.7826,254.5637,-0.033861,-0.00564247,0.0,0 STARLINK-3277,1 50182U 21125AC  22081.25001157 -.00564247  00000-0 -33861-1 0  9993,2 50182  53.2175 271.4320 0001758  46.7826 254.5637 15.12868547 17450,6905.594,95.183,528.673,526.245,0.0
50182.0,STARLINK-3277,PAYLOAD,2022-03-22 14:00:01,15.12472319,0.000175,53.2176,269.931,42.5271,275.0151,-0.040315,-0.00664324,0.0,0 STARLINK-3277,1 50182U 21125AC  22081.58334491 -.00664324  00000-0 -40315-1 0  9998,2 50182  53.2176 269.9310 0001750  42.5271 275.0151 15.12472319  3634,6906.8,95.208,529.874,527.456,0.0
50182.0,STARLINK-3277,PAYLOAD,2022-03-22 20:00:01,15.12121466,0.0001822,53.2173,268.806,45.4904,193.8596,-0.040663,-0.0066356,0.0,0 STARLINK-3277,1 50182U 21125AC  22081.83334491 -.00663560  00000-0 -40663-1 0  9993,2 50182  53.2173 268.8060 0001822  45.4904 193.8596 15.12121466 17545,6907.868,95.23,530.992,528.475,0.0
50182.0,STARLINK-3277,PAYLOAD,2022-03-22 22:00:01,15.12004444,0.000171,53.2175,268.431,42.9962,290.2826,-0.040737,-0.00662644,0.0,0 STARLINK-3277,1 50182U 21125AC  22081.91668981 -.00662644  00000-0 -40737-1 0  9990,2 50182  53.2175 268.4310 0001710  42.9962 290.2826 15.12004444  3643,6908.225,95.238,531.271,528.909,0.0
50182.0,STARLINK-3277,PAYLOAD,2022-03-23 14:00:01,15.11072841,0.0001738,53.2176,265.4292,40.6221,322.2603,-0.041966,-0.00664959,0.0,0 STARLINK-3277,1 50182U 21125AC  22082.58334491 -.00664959  00000-0 -41966-1 0  9996,2 50182  53.2176 265.4292 0001738  40.6221 322.2603 15.11072841  3658,6911.064,95.297,534.13,531.7280000000002,0.0
50182.0,STARLINK-3277,PAYLOAD,2022-03-23 22:00:00,15.10604213,0.0001726,53.2175,263.9324,40.7902,336.0842,-0.042319,-0.00662063,0.0,0 STARLINK-3277,1 50182U 21125AC  22082.91667824 -.00662063  00000-0 -42319-1 0  9999,2 50182  53.2175 263.9324 0001726  40.7902 336.0842 15.10604213 17702,6912.493,95.326,535.5509999999998,533.165,0.0
50182.0,STARLINK-3277,PAYLOAD,2022-03-24 14:00:01,15.09673568,0.0001686,53.2177,260.937,42.2837,0.8933,-0.043717,-0.0066624,0.0,0 STARLINK-3277,1 50182U 21125AC  22083.58334491 -.00666240  00000-0 -43717-1 0  9998,2 50182  53.2177 260.9370 0001686  42.2837   0.8933 15.09673568  3610,6915.334,95.385,538.365,536.033,0.0
50182.0,STARLINK-3277,PAYLOAD,2022-03-24 22:00:00,15.09101099,0.0001646,53.2175,259.442,47.5263,7.9806,-0.023738,-0.00362105,0.0,0 STARLINK-3277,1 50182U 21125AC  22083.91667824 -.00362105  00000-0 -23738-1 0  9998,2 50182  53.2175 259.4420 0001646  47.5263   7.9806 15.09101099  3638,6917.081999999999,95.421,540.086,537.809,0.0
50182.0,STARLINK-3277,PAYLOAD,2022-03-25 00:00:02,15.08952077,0.0001684,53.2172,259.0676,44.4773,104.0845,-0.011044,-0.00172407,0.0,0 STARLINK-3277,1 50182U 21125AC  22084.00002315 -.00172407  00000-0 -11044-1 0  9998,2 50182  53.2172 259.0676 0001684  44.4773 104.0845 15.08952077 17870,6917.538000000001,95.43,540.568,538.238,0.0
50182.0,STARLINK-3277,PAYLOAD,2022-03-25 14:00:01,15.08885914,0.0001746,53.2174,256.4407,43.4123,35.5515,-0.0038085,-0.00060468,0.0,0 STARLINK-3277,1 50182U 21125AC  22084.58334491 -.00060468  00000-0 -38085-2 0  9992,2 50182  53.2174 256.4407 0001746  43.4123  35.5515 15.08885914 17969,6917.74,95.435,540.813,538.3969999999998,0.0
